{"type": "Feature", "geometry": {"type": "Polygon", "coordinates": [[[139.33036583781325, 35.7936168653261], [139.33036027280843, 35.79433853259724], [139.32572944235994, 35.795211865135514], [139.3239689115361, 35.796867414499616], [139.32224586355585, 35.79960797342926], [139.32147172533996, 35.802059359851626], [139.3188036967333, 35.80773183815387], [139.31833900174365, 35.8098293332572], [139.31678900131146, 35.811470171511246], [139.31675208863805, 35.81268877536672], [139.31502486420618, 35.814269054173565], [139.31502930056183, 35.81680877560456], [139.31649683586033, 35.819359054177085], [139.31615907927812, 35.823667667428936], [139.3149215824651, 35.82524489213813], [139.3114724126218, 35.825278774995525], [139.30677739306225, 35.82302933313724], [139.30259182954933, 35.82405017157822], [139.30269131075545, 35.82601377561531], [139.30118547333097, 35.829771000131586], [139.30174050611947, 35.831482945981236], [139.3011685606806, 35.83495989228527], [139.2963141120067, 35.83513961370227], [139.29560438413512, 35.8338454416139], [139.29240328148637, 35.83700238755017], [139.29091050671457, 35.83795710783431], [139.28615632975084, 35.83690572122208], [139.2851618945059, 35.836015721548335], [139.2828843848066, 35.8371685049226], [139.28184577216473, 35.83951961333952], [139.27999661585125, 35.83930961354787], [139.2718918940957, 35.8396882254313], [139.2682404676235, 35.83824183859002], [139.26366297056973, 35.83741905424603], [139.26050435818968, 35.83600127933562], [139.2588046431199, 35.83727155913522], [139.2522554733115, 35.8382490538508], [139.24681016915406, 35.836892946352464], [139.24252795100415, 35.8367871078388], [139.2409610253311, 35.840154892634246], [139.23721352878135, 35.840210721647566], [139.23567461699008, 35.83833517113129], [139.2325348903729, 35.836636000151316], [139.23066350281852, 35.83674183866498], [139.22774433223526, 35.83904572098328], [139.22454710836246, 35.84049905418806], [139.22009294433394, 35.841361000409904], [139.21933267276472, 35.84252099994427], [139.21394350249068, 35.845438504983065], [139.21264936457658, 35.846611279387105], [139.2096801692045, 35.84618183782163], [139.20746766520062, 35.8464198919645], [139.20490099918186, 35.84456655919939], [139.20480238762013, 35.84302794598295], [139.20313791248475, 35.841199054093124], [139.19931124501795, 35.84124294640492], [139.1958095592638, 35.84004600002294], [139.19244150557108, 35.84027153200566], [139.1868862260186, 35.842865135417696], [139.18415817126265, 35.84279153220348], [139.18362817110324, 35.84357458629819], [139.17729788638837, 35.84659402769228], [139.17435761321337, 35.8483120808379], [139.17099538353023, 35.84864983831943], [139.16909316541728, 35.849984559040195], [139.16616678317052, 35.84996761311493], [139.16353066161082, 35.85086817082947], [139.1625762003315, 35.84955066762927], [139.1646992487714, 35.8472520544388], [139.1664186904702, 35.84456927964857], [139.16611810646555, 35.84297150543068], [139.17108533102328, 35.839980387285095], [139.17172033782344, 35.840025107872464], [139.17533644612013, 35.836066252655485], [139.1773503375481, 35.83514986507424], [139.17690031140035, 35.83305819847715], [139.17843085679863, 35.83058902706199], [139.1752422187535, 35.82682819806297], [139.1774116344394, 35.82019013566628], [139.1742093644707, 35.81282705422524], [139.1755148904998, 35.80684150483165], [139.17364544727968, 35.806794279632356], [139.17166513653683, 35.80509427947749], [139.17153180305036, 35.80355289185252], [139.16732121949872, 35.80172510792744], [139.16481566870823, 35.801600108458274], [139.16093286645867, 35.79920036020849], [139.15825814509742, 35.798286468245976], [139.15630535720652, 35.798625360671906], [139.1546417256352, 35.79769480247319], [139.14982005275328, 35.796378414432354], [139.14872836662084, 35.7944645321125], [139.14692308733072, 35.79303144084838], [139.1475591966996, 35.79163453200812], [139.14757027274993, 35.78901258646175], [139.14687885957176, 35.7850631354554], [139.14780941597178, 35.782024532206435], [139.14281243824348, 35.78104977502716], [139.14048494242627, 35.77899450489252], [139.13716046718184, 35.77803922523009], [139.13763849552026, 35.772431999936884], [139.1393826721727, 35.772053666843306], [139.14282102497043, 35.776344775690916], [139.14446077864204, 35.77695200063437], [139.14655939070337, 35.77530369441001], [139.14824160856347, 35.77529091954034], [139.1482429962174, 35.77788508143141], [139.14913496810436, 35.77883619813207], [139.1523396635447, 35.775950081231315], [139.15297577201432, 35.774142027532605], [139.1546043839852, 35.77323535982407], [139.15749438415855, 35.77353786568], [139.1586316731133, 35.777914532429804], [139.16059997430943, 35.777162612864345], [139.16304416345747, 35.77824455933899], [139.16567639455002, 35.77956427936806], [139.1672405844854, 35.78111677541892], [139.17213391714665, 35.782208440866896], [139.17561922264906, 35.78486264059842], [139.1792150584282, 35.786133198288496], [139.1819528663318, 35.78763153266914], [139.18618425479963, 35.78778430590103], [139.18878955929074, 35.78907541399923], [139.19120038898677, 35.78867874822572], [139.19553066151093, 35.78683294638341], [139.19824483882826, 35.78643572123161], [139.19889566830057, 35.78445100021355], [139.20213425469217, 35.782479613443456], [139.20357202333025, 35.78015766734251], [139.20643897567822, 35.77843517154599], [139.21053033700548, 35.773177694395144], [139.21438396974452, 35.77407186512454], [139.21525481206004, 35.773237135085765], [139.21790396929282, 35.772928531826324], [139.22077481210795, 35.7739968652632], [139.22258396927487, 35.77244602756218], [139.22389341185158, 35.77284436067873], [139.23068674399815, 35.76999546851613], [139.23173841839332, 35.768889108145856], [139.23374425459372, 35.76861800032049], [139.23527396901852, 35.76937244158495], [139.2383025816988, 35.76825938756076], [139.23836394334137, 35.766999946390456], [139.2426414796206, 35.766807721699024], [139.24481758806132, 35.76740244156946], [139.25076786064835, 35.765998000007755], [139.25191282711535, 35.76448244091199], [139.25495810603184, 35.76293133341437], [139.2568647730909, 35.760708279463586], [139.26152671918283, 35.759831640118136], [139.26427477306243, 35.76055164004623], [139.2671908958432, 35.76004136022067], [139.26932282778637, 35.76113025215949], [139.274207276045, 35.76089219801656], [139.27611255545014, 35.761618585829126], [139.28772700469756, 35.760919414199634], [139.28814282782935, 35.75961358599824], [139.29009116767327, 35.76007302714851], [139.29433613500464, 35.75536080265897], [139.29654197143486, 35.75454525246147], [139.29744199765014, 35.760080531991036], [139.29654839259433, 35.763151919125846], [139.29663620060023, 35.76628246816142], [139.29520761314086, 35.76979886502568], [139.29309428007707, 35.772036892688504], [139.29213263321446, 35.77534189221461], [139.29550319151917, 35.77765577499406], [139.2984143320558, 35.78127883864755], [139.3019446171504, 35.77989494659454], [139.30331878123684, 35.77813383840595], [139.3080223614429, 35.77723410806766], [139.30918680902403, 35.77570550520494], [139.311369857533, 35.77676161325792], [139.31228097328835, 35.77552466682994], [139.31843988319417, 35.77841105442667], [139.3210731916745, 35.77721966765358], [139.32374905337622, 35.78004522510713], [139.32411988342596, 35.78108410844487], [139.32066046760656, 35.78336272161238], [139.32078577284517, 35.78829855893139], [139.3220491440528, 35.789781865640634], [139.32626383930483, 35.78703133322949], [139.33007080442417, 35.790612413831866], [139.32848275007893, 35.79176908137805], [139.33036583781325, 35.7936168653261]]]}, "properties": {"N03_001": "東京都", "N03_002": null, "N03_003": null, "N03_004": "青梅市", "N03_007": "13205"}}